     2.10           NAVIGATION DATA                         RINEX VERSION / TYPE
GPP.DLL V3.02       IT                  10 - DEC - 20 05:18 PGM / RUN BY / DATE 
Onboard RINEX convertor RC027                               COMMENT             
                                                            COMMENT             
                                                            COMMENT             
                                                            COMMENT             
                                                            COMMENT             
                                                            COMMENT             
                                                            COMMENT             
                                                            COMMENT             
                                                            COMMENT             
                                                            COMMENT             
                                                            COMMENT             
                                                            COMMENT             
                                                            COMMENT             
                                                            COMMENT             
                                                            COMMENT             
                                                            COMMENT             
                                                            COMMENT             
                                                            COMMENT             
                                                            COMMENT             
     .9313D-08  -.1490D-07  -.5960D-07   .1192D-06          ION ALPHA           
     .9626D+05  -.1475D+06  -.1311D+06   .9175D+06          ION BETA            
    -.186264514923D-08 -.355271367880D-14   589824     2135 DELTA-UTC: A0,A1,T,W
    18                                                      LEAP SECONDS        
                                                            END OF HEADER       
17 20 12  8 10  0  0.0  .364270061255D-03  .500222085975D-11  .000000000000D+00
     .930000000000D+02  .301250000000D+02  .397087968879D-08 -.847393708686D+00
     .160932540894D-05  .136254682438D-01  .101663172245D-04  .515351626587D+04
     .208800000000D+06 -.195577740669D-06 -.142827176553D+01  .115483999252D-06
     .982998240268D+00  .201718750000D+03 -.160517980828D+01 -.802962018020D-08
    -.167864135072D-10  .000000000000D+00  .213500000000D+04  .000000000000D+00
     .100000000000D+01  .000000000000D+00 -.111758708954D-07  .930000000000D+02
     .201657000000D+06  .000000000000D+00  .000000000000D+00  .000000000000D+00
19 20 12  8 10  0  0.0 -.680885277689D-04  .500222085975D-11  .000000000000D+00
     .580000000000D+02  .203437500000D+02  .393337812670D-08  .174956222431D+01
     .951811671257D-06  .899770436808D-02  .987946987152D-05  .515361172104D+04
     .208800000000D+06  .150874257088D-06 -.138289934521D+01 -.134110450745D-06
     .981380381609D+00  .198156250000D+03  .175643058373D+01 -.772639326386D-08
    -.503592405216D-10  .000000000000D+00  .213500000000D+04  .000000000000D+00
     .000000000000D+00  .000000000000D+00 -.153668224812D-07  .580000000000D+02
     .201658000000D+06  .000000000000D+00  .000000000000D+00  .000000000000D+00
21 20 12  8 10  0  0.0  .756527297199D-04  .352429196937D-11  .000000000000D+00
     .480000000000D+02  .280625000000D+02  .489306095849D-08 -.448407316685D+00
     .139139592648D-05  .240098922513D-01  .659376382828D-05  .515374480629D+04
     .208800000000D+06 -.381842255592D-06 -.510496531155D+00 -.279396772385D-07
     .955600748515D+00  .257093750000D+03 -.123356941045D+01 -.870357682462D-08
     .430732227440D-09  .000000000000D+00  .213500000000D+04  .000000000000D+00
     .000000000000D+00  .000000000000D+00 -.102445483208D-07  .480000000000D+02
     .201659000000D+06  .000000000000D+00  .000000000000D+00  .000000000000D+00
22 20 12  8 10  0  0.0 -.718520022929D-03  .591171556152D-11  .000000000000D+00
     .210000000000D+02 -.555312500000D+02  .542165440510D-08 -.173747067681D+01
    -.282935798168D-05  .676491565537D-02  .512041151524D-05  .515365938568D+04
     .208800000000D+06 -.208616256714D-06  .513816610570D+00  .894069671631D-07
     .932950150901D+00  .264375000000D+03 -.106474263396D+01 -.862857370044D-08
    -.707172313708D-10  .000000000000D+00  .213500000000D+04  .000000000000D+00
     .000000000000D+00  .000000000000D+00 -.181607902050D-07  .210000000000D+02
     .201660000000D+06  .000000000000D+00  .000000000000D+00  .000000000000D+00
17 20 12  8  9 59 44.0  .364270992577D-03  .500222085975D-11  .000000000000D+00
     .700000000000D+01  .301250000000D+02  .397087968879D-08 -.849727417049D+00
     .160932540894D-05  .136254689423D-01  .101663172245D-04  .515351625824D+04
     .208784000000D+06 -.195577740669D-06 -.142827162655D+01  .115483999252D-06
     .982998247583D+00  .201718750000D+03 -.160517991947D+01 -.802962018020D-08
    -.171435712414D-10  .000000000000D+00  .213500000000D+04  .000000000000D+00
     .000000000000D+00  .000000000000D+00 -.111758708954D-07  .700000000000D+01
     .203068000000D+06  .000000000000D+00  .000000000000D+00  .000000000000D+00
 7 20 12  8 10  0  0.0 -.429737847298D-03 -.738964445191D-11  .000000000000D+00
     .680000000000D+02  .557187500000D+02  .473841165958D-08  .271241084684D+01
     .273063778877D-05  .142565214774D-01  .800378620625D-05  .515362031364D+04
     .208800000000D+06  .298023223877D-07  .271102186026D+01 -.176951289177D-06
     .952481796930D+00  .219531250000D+03 -.235828345236D+01 -.795461705602D-08
     .236795577772D-09  .000000000000D+00  .213500000000D+04  .000000000000D+00
     .000000000000D+00  .000000000000D+00 -.111758708954D-07  .680000000000D+02
     .204215000000D+06  .000000000000D+00  .000000000000D+00  .000000000000D+00
 3 20 12  8  9 59 44.0 -.243149697781D-04 -.100044417195D-10  .000000000000D+00
     .200000000000D+01 -.629062500000D+02  .458626246481D-08  .218218642066D+01
    -.337883830070D-05  .326760555618D-02  .588782131672D-05  .515369392967D+04
     .208784000000D+06 -.894069671631D-07  .607237394629D+00 -.670552253723D-07
     .967595322103D+00  .267437500000D+03  .892644986224D+00 -.813569602725D-08
    -.103932900651D-09  .000000000000D+00  .213500000000D+04  .000000000000D+00
     .000000000000D+00  .000000000000D+00  .186264514923D-08  .200000000000D+01
     .204380000000D+06  .000000000000D+00  .000000000000D+00  .000000000000D+00
 9 20 12  8  9 59 44.0 -.298909842968D-03 -.454747350886D-11  .000000000000D+00
     .500000000000D+01 -.341875000000D+02  .457661920599D-08 -.288146605800D+00
    -.187754631042D-05  .202353682835D-02  .111944973469D-04  .515360979080D+04
     .208784000000D+06 -.745058059692D-07  .163776444182D+01  .223517417908D-07
     .952602091221D+00  .158375000000D+03  .176923734603D+01 -.801926260590D-08
    -.810748056625D-10  .000000000000D+00  .213500000000D+04  .000000000000D+00
     .000000000000D+00  .000000000000D+00  .139698386192D-08  .500000000000D+01
     .204384000000D+06  .000000000000D+00  .000000000000D+00  .000000000000D+00
 2 20 12  8 10  0  0.0 -.551918055862D-03 -.454747350886D-11  .000000000000D+00
     .470000000000D+02  .388125000000D+02  .457411910185D-08 -.267985803910D+01
     .206381082535D-05  .201899919193D-01  .618584454060D-05  .515357306099D+04
     .208800000000D+06  .286847352982D-06 -.511660946652D+00  .132247805595D-06
     .961527477307D+00  .255718750000D+03 -.157785355333D+01 -.793175896103D-08
     .443232748137D-09  .000000000000D+00  .213500000000D+04  .000000000000D+00
     .000000000000D+00  .000000000000D+00 -.176951289177D-07  .470000000000D+02
     .204842000000D+06  .000000000000D+00  .000000000000D+00  .000000000000D+00
30 20 12  8 10  0  0.0 -.348807778209D-03 -.636646291241D-11  .000000000000D+00
     .820000000000D+02  .569375000000D+02  .519700219029D-08  .271685572447D+01
     .290200114250D-05  .471067416947D-02  .787526369095D-05  .515377183342D+04
     .208800000000D+06 -.279396772385D-07  .273075429325D+01 -.260770320892D-07
     .937745931373D+00  .215250000000D+03 -.284077384323D+01 -.834106172442D-08
     .206437170365D-09  .000000000000D+00  .213500000000D+04  .000000000000D+00
     .000000000000D+00  .000000000000D+00  .372529029846D-08  .820000000000D+02
     .208500000000D+06  .000000000000D+00  .000000000000D+00  .000000000000D+00
 2 20 12  8 12  0  0.0 -.551950652152D-03 -.454747350886D-11  .000000000000D+00
     .480000000000D+02  .441250000000D+02  .461983529183D-08 -.162962745154D+01
     .277534127235D-05  .201905830763D-01  .627525150776D-05  .515357202911D+04
     .216000000000D+06  .152736902237D-06 -.511717864406D+00  .480562448502D-06
     .961529428840D+00  .259312500000D+03 -.157784096931D+01 -.819498421113D-08
     .357157734196D-09  .000000000000D+00  .213500000000D+04  .000000000000D+00
     .000000000000D+00  .000000000000D+00 -.176951289177D-07  .480000000000D+02
     .208870000000D+06  .000000000000D+00  .000000000000D+00  .000000000000D+00
 3 20 12  8 11 59 44.0 -.243866816163D-04 -.100044417195D-10  .000000000000D+00
     .100000000000D+02 -.553125000000D+02  .460769192886D-08 -.305101357034D+01
    -.289082527161D-05  .326637295075D-02  .551715493202D-05  .515369650269D+04
     .215984000000D+06 -.130385160446D-07  .607178412698D+00 -.162050127983D-06
     .967594467759D+00  .273718750000D+03  .892828042626D+00 -.819569852660D-08
    -.550022910662D-10  .000000000000D+00  .213500000000D+04  .000000000000D+00
     .000000000000D+00  .000000000000D+00  .186264514923D-08  .100000000000D+02
     .208871000000D+06  .000000000000D+00  .000000000000D+00  .000000000000D+00
